SUPERVIEW NEO-3 01      
1 59510U 24072A   25220.85174195  .00011104  00000+0  47460-3 0  9996
2 59510  97.4451 299.1531 0002667 117.0573 243.0936 15.23018369 73158
STARLINK-31635          
1 59511U 24073A   25220.61907992  .00000582  00000+0  30695-4 0  9992
2 59511  43.0019  80.9523 0001547 259.4430 100.6247 15.27577259 73595
STARLINK-31650          
1 59512U 24073B   25220.65506380  .00004975  00000+0  19034-3 0  9996
2 59512  42.9996  81.2234 0001164 262.0230  98.0490 15.27552482 74800
STARLINK-31658          
1 59513U 24073C   25220.22535605 -.00000962  00000+0 -25448-4 0  9993
2 59513  43.0038  43.2798 0001120 275.9643  84.1081 15.27575970 73983
STARLINK-31669          
1 59515U 24073E   25220.89090550  .00001533  00000+0  65232-4 0  9991
2 59515  43.0016  79.5521 0001181 276.3033  83.7684 15.27578456 74855
STARLINK-31671          
1 59516U 24073F   25220.33840318  .00000589  00000+0  30959-4 0  9994
2 59516  43.0072  83.1383 0002027 268.8820  91.1800 15.27569988 73543
STARLINK-31674          
1 59517U 24073G   25220.64092565  .00001529  00000+0  65082-4 0  9992
2 59517  42.9993  81.1195 0000839 281.4499  78.6258 15.27576085 74819
STARLINK-31679          
1 59519U 24073J   25220.63338046  .00001013  00000+0  46318-4 0  9999
2 59519  43.0028  70.6688 0000894 271.2996  88.7753 15.27575975 73719
STARLINK-31370          
1 59520U 24073K   25220.66275982  .00000619  00000+0  32034-4 0  9994
2 59520  43.0087  81.2747 0001548 270.6136  89.4539 15.27581831 74715
STARLINK-31404          
1 59521U 24073L   25220.67305297  .00000197  00000+0  16686-4 0  9995
2 59521  43.0048  81.3518 0001278 272.6560  87.4145 15.27567614 74818
STARLINK-31453          
1 59522U 24073M   25220.63430063  .00000796  00000+0  38435-4 0  9993
2 59522  43.0033  63.4600 0001381 277.3043  82.7652 15.27578084 73799
STARLINK-31476          
1 59523U 24073N   25220.65891525 -.00000066  00000+0  71316-5 0  9997
2 59523  43.0034  81.2473 0001232 277.4560  82.6152 15.27571788 74718
STARLINK-31376          
1 59524U 24073P   25220.58335648  .00225078  00000+0  34625-2 0  9999
2 59524  42.9920  72.2056 0022799 264.1352   4.8095 15.52408252 74907
STARLINK-31538          
1 59525U 24073Q   25220.89475746  .00001221  00000+0  53897-4 0  9994
2 59525  42.9987  79.5784 0001326 264.3669  95.7031 15.27582049 74745
STARLINK-31564          
1 59526U 24073R   25220.88705154  .00000746  00000+0  36619-4 0  9997
2 59526  43.0019  79.5204 0001421 283.3721  76.6972 15.27579573 74859
STARLINK-31452          
1 59527U 24073S   25220.34226464 -.00000443  00000+0 -65857-5 0  9994
2 59527  43.0032  83.1699 0000993 273.5144  86.5594 15.27571046 73549
STARLINK-31618          
1 59528U 24073T   25220.33911226  .00070868  00000+0  22577-2 0  9996
2 59528  43.0000  81.4266 0004931 236.0958 123.9426 15.31648960 73566
STARLINK-31513          
1 59529U 24073U   25220.60171658 -.00001642  00000+0 -50141-4 0  9990
2 59529  43.0025  78.1808 0001839 277.0369  83.0273 15.27591311 73629
STARLINK-31392          
1 59530U 24073V   25220.65120358  .00000169  00000+0  15663-4 0  9999
2 59530  43.0000  81.1861 0000925 276.0462  84.0284 15.27574596 74827
STARLINK-31619          
1 59531U 24073W   25220.31013582  .00000739  00000+0  36378-4 0  9992
2 59531  43.0013  82.9308 0001248 280.6660  79.4051 15.27576940 74664
STARLINK-31624          
1 59532U 24073X   25220.91667824  .00259202  00000+0  21024-2 0  9994
2 59532  42.9965  49.4916 0023939 294.0555 335.1005 15.68813082 75179
STARLINK-31509          
1 59533U 24073Y   25220.34997826  .00002443  00000+0  98285-4 0  9998
2 59533  43.0034  83.2401 0001164 261.5645  98.5075 15.27569149 73542
STARLINK-31734          
1 59534U 24074A   25220.35579470 -.00002906  00000+0 -96083-4 0  9992
2 59534  43.0005  97.4265 0001288 279.6545  80.4161 15.27588218 73513
STARLINK-31738          
1 59535U 24074B   25220.11125878  .00000490  00000+0  27339-4 0  9998
2 59535  43.0004 105.8700 0001368 287.1554  72.9147 15.27576126 73395
STARLINK-31721          
1 59536U 24074C   25220.11335448  .00000050  00000+0  11333-4 0  9994
2 59536  43.0008 109.4269 0001268 276.4036  83.6671 15.27580158 73352
STARLINK-31737          
1 59537U 24074D   25220.12748944 -.00000475  00000+0 -77161-5 0  9990
2 59537  43.0014 109.5387 0001619 294.6201  65.4482 15.27578510 74536
STARLINK-31725          
1 59538U 24074E   25220.00197550 -.00000798  00000+0 -19488-4 0  9994
2 59538  43.0056  99.6502 0001600 269.6207  90.4462 15.27574795 74626
STARLINK-31539          
1 59539U 24074F   25220.66214070 -.00006543  00000+0 -22827-3 0  9998
2 59539  43.0015 106.6698 0000799 296.0991  63.9778 15.27606668 74517
STARLINK-31397          
1 59540U 24074G   25220.41474199  .00002562  00000+0  10264-3 0  9990
2 59540  43.0026 108.2477 0001237 265.5796  94.4914 15.27567833 73392
STARLINK-31481          
1 59541U 24074H   25220.75307630  .00001991  00000+0  81830-4 0  9996
2 59541  43.0021 105.6306 0001197 279.3507  80.7209 15.27585160 74623
STARLINK-31540          
1 59542U 24074J   25220.05182090  .00007591  00000+0  28505-3 0  9992
2 59542  43.0006 109.8246 0001417 254.7157 105.3538 15.27585525 73341
STARLINK-31574          
1 59543U 24074K   25220.73139160  .00000752  00000+0  36845-4 0  9997
2 59543  43.0025 106.3224 0000582 248.9551 111.1239 15.27573107 74613
STARLINK-31556          
1 59544U 24074L   25220.08010060 -.00000566  00000+0 -11070-4 0  9991
2 59544  43.0016 110.0396 0000784 281.1712  78.9051 15.27571195 73344
STARLINK-31582          
1 59545U 24074M   25220.09165961  .00004143  00000+0  16008-3 0  9992
2 59545  43.0044 110.1218 0001451 258.2121 101.8568 15.27562981 73343
STARLINK-31519          
1 59546U 24074N   25220.10564961  .00001227  00000+0  54113-4 0  9998
2 59546  43.0015 109.3683 0001278 278.2084  81.8623 15.27574916 73356
STARLINK-31736          
1 59547U 24074P   25220.06564495 -.00000827  00000+0 -20538-4 0  9997
2 59547  43.0028 102.9999 0001387 270.5429  89.5264 15.27573471 73428
STARLINK-31675          
1 59548U 24074Q   25220.12106836  .00001401  00000+0  60452-4 0  9992
2 59548  42.9999 109.4833 0000821 260.7724  99.3034 15.27568370 73352
STARLINK-31722          
1 59549U 24074R   25220.10181017  .00010823  00000+0  40258-3 0  9994
2 59549  42.9997 109.3406 0000787 286.9696  73.1069 15.27551414 73354
STARLINK-31741          
1 59550U 24074S   25220.10951455 -.00002146  00000+0 -68534-4 0  9996
2 59550  42.9986 109.3955 0001323 265.5501  94.5199 15.27561064 73351
STARLINK-31699          
1 59551U 24074T   25220.64672795 -.00001318  00000+0 -38380-4 0  9999
2 59551  43.0006 106.5430 0001366 252.8570 107.2132 15.27578445 74605
STARLINK-31750          
1 59552U 24074U   25220.00442666  .00001060  00000+0  48034-4 0  9991
2 59552  43.0057 110.3316 0001139 285.5829  74.4897 15.27576390 73335
STARLINK-31723          
1 59553U 24074V   25219.41209258 -.00002473  00000+0 -80365-4 0  9997
2 59553  43.0025 113.6270 0001533 284.3137  75.7545 15.27587109 74417
STARLINK-31724          
1 59554U 24074W   25220.85262984  .00000167  00000+0  15604-4 0  9993
2 59554  43.0028  69.4740 0001208 271.3692  88.7021 15.27574357 74944
STARLINK-31730          
1 59555U 24074X   25220.09551721 -.00000667  00000+0 -14732-4 0  9998
2 59555  43.0017 110.1479 0001247 246.0366 114.0355 15.27573202 73340
STARLINK-31718          
1 59556U 24074Y   25220.73782129 -.00000209  00000+0  19390-5 0  9995
2 59556  43.0041 106.3711 0001097 266.7779  93.2948 15.27572186 74611
YAOGAN-42 02            
1 59557U 24075A   25220.88876945  .00013260  34628-7  54892-3 0  9998
2 59557  34.9983  73.6384 0006597 240.2914 119.7144 15.22964226 72442
STARLINK-31747          
1 59564U 24076A   25220.45524742  .00001057  00000+0  47939-4 0  9990
2 59564  43.0003 122.6523 0001125 281.8811  78.1914 15.27576426 74006
STARLINK-31388          
1 59565U 24076B   25220.16028176 -.00002144  00000+0 -68415-4 0  9991
2 59565  43.0051 135.1340 0001325 293.3059  66.7653 15.27581818 73845
STARLINK-31332          
1 59566U 24076C   25220.12685784  .00001180  00000+0  52397-4 0  9991
2 59566  43.0005 134.8605 0001082 278.1755  81.8974 15.27581291 73848
STARLINK-31689          
1 59567U 24076D   25220.15432639  .00001109  00000+0  49832-4 0  9995
2 59567  43.0026 131.6125 0001470 270.5425  89.5258 15.27577683 73889
STARLINK-31471          
1 59568U 24076E   25219.95254526  .00001048  00000+0  47600-4 0  9992
2 59568  43.0026 136.1369 0001356 273.6136  86.4561 15.27574380 73644
STARLINK-31470          
1 59569U 24076F   25220.14790762 -.00001058  00000+0 -28942-4 0  9994
2 59569  43.0021 131.5636 0001332 257.4697 102.6006 15.27572340 73797
STARLINK-31587          
1 59570U 24076G   25220.15641749 -.00000053  00000+0  75779-5 0  9991
2 59570  43.0007 135.0874 0000796 282.1498  77.9265 15.27574795 73868
STARLINK-31606          
1 59571U 24076H   25220.58335648  .00020238  00000+0  74320-3 0  9992
2 59571  43.0005 132.0975 0001652 259.7548 171.4747 15.27568360  5922
STARLINK-31666          
1 59572U 24076J   25220.46889222  .00000159  00000+0  15296-4 0  9990
2 59572  43.0040 126.1867 0001305 270.5797  89.4905 15.27576003 73975
STARLINK-31683          
1 59573U 24076K   25220.13457109 -.00000667  00000+0 -14727-4 0  9994
2 59573  43.0000 134.9151 0001232 305.6801  54.3936 15.27575213 73843
STARLINK-31751          
1 59574U 24076L   25220.16798205 -.00000145  00000+0  42660-5 0  9991
2 59574  43.0022 135.1827 0001615 255.9443 104.1229 15.27574034 73844
STARLINK-31510          
1 59575U 24076M   25220.73894812 -.00004785  00000+0 -16436-3 0  9991
2 59575  43.0019 128.2637 0001174 267.1053  92.9664 15.27601994 73972
STARLINK-31663          
1 59576U 24076N   25219.96796593 -.00000910  00000+0 -23567-4 0  9992
2 59576  43.0017 136.2467 0001172 215.8467 144.2306 15.27577994 73817
